ABS-2                   
1 39508U 14006A   26162.49018247 -.00000069  00000+0  00000+0 0  9992
2 39508   0.0387  80.8909 0003922 345.1341  85.2051  1.00271072 45220
ATHENA-FIDUS            
1 39509U 14006B   26162.55935275  .00000000  00000+0  00000+0 0  9993
2 39509   0.0180   6.2675 0001167  84.3249  48.4640  1.00272040 45032
TURKSAT 4A              
1 39522U 14007A   26162.56021942  .00000163  00000+0  00000+0 0  9997
2 39522   0.0470 299.1809 0001367  19.8443 184.5471  1.00271296 44914
EXPRESS-AT1             
1 39612U 14010A   26162.66552517  .00000046  00000+0  00000+0 0  9999
2 39612   0.2417  85.8208 0003845  38.9672  76.5159  1.00302309 44765
EXPRESS-AT2             
1 39613U 14010B   26162.56299277  .00000095  00000+0  00000+0 0  9994
2 39613   0.0169 316.9608 0000134 350.4689 211.1511  1.00271010 44446
AMAZONAS 4A             
1 39616U 14011A   26162.53701065 -.00000236  00000+0  00000+0 0  9996
2 39616   0.0630 191.9931 0003762 276.8532 270.3691  1.00271867 44659
ASTRA 5B                
1 39617U 14011B   26162.55649274  .00000154  00000+0  00000+0 0  9990
2 39617   0.0514 325.6594 0001889 103.2167  54.8518  1.00271057 44617
IRNSS-1B                
1 39635U 14017A   26161.77869507  .00000125  00000+0  00000+0 0  9990
2 39635  28.9327 240.5136 0022979 189.5605 164.4642  1.00274335 44722
LUCH-5V                 
1 39727U 14023A   26162.64193955 -.00000253  00000+0  00000+0 0  9996
2 39727   5.1184  69.8082 0002716  38.5192 117.3745  1.00265868 44301
KAZSAT-3                
1 39728U 14023B   26161.92182781  .00000078  00000+0  00000+0 0  9996
2 39728   0.0294  55.3837 0000053  17.9008 216.3374  1.00271093 42397
EUTELSAT 3B             
1 39773U 14030A   26161.98219618  .00000038  00000+0  00000+0 0  9996
2 39773   0.0611   1.5828 0003859  78.4254 176.0326  1.00272785 44003
ASIASAT 8 (AMOS-7)      
1 40107U 14046A   26162.57273074 -.00000316  00000+0  00000+0 0  9998
2 40107   0.0020 358.0168 0001267  90.4469 122.9530  1.00269182102098
ASIASAT 6               
1 40141U 14052A   26162.64687956 -.00000345  00000+0  00000+0 0  9991
2 40141   0.0182  14.9526 0000694  88.9990 148.8253  1.00269555 43025
OPTUS 10                
1 40146U 14054A   26161.65599649 -.00000130  00000+0  00000+0 0  9991
2 40146   0.0630 293.9309 0001969 144.7874 212.4494  1.00271704 42960
MEASAT-3B               
1 40147U 14054B   26162.49874539 -.00000225  00000+0  00000+0 0  9994
2 40147   0.0530  52.1760 0003144  18.9025  99.8128  1.00271620 42859
HIMAWARI-8              
1 40267U 14060A   26162.57973185 -.00000259  00000+0  00000+0 0  9997
2 40267   0.0135 324.3419 0000735 146.3196 138.6238  1.00269650 42704
IRNSS-1C                
1 40269U 14061A   26161.87813236 -.00000146  00000+0  00000+0 0  9997
2 40269   6.5024  89.0489 0022686   1.7061 207.6145  1.00270328 42629
INTELSAT 30 (IS-30)     
1 40271U 14062A   26162.53302396 -.00000135  00000+0  00000+0 0  9993
2 40271   0.0275  49.3152 0001255 328.5516 338.8417  1.00278036  6734
ARSAT 1                 
1 40272U 14062B   26162.53770398 -.00000243  00000+0  00000+0 0  9995
2 40272   0.0180  22.5418 0001770  51.2753 307.8339  1.00272328 42561
EUTELSAT 53A            
1 40277U 14064A   26162.63365779  .00000115  00000+0  00000+0 0  9993
2 40277   0.0136 299.4304 0000898 250.8456 350.8288  1.00271357 41519
GSAT-16                 
1 40332U 14078A   26162.56281943  .00000101  00000+0  00000+0 0  9997
2 40332   0.0746  91.6945 0007604 354.3947  71.5150  1.00272694 42058
DIRECTV 14              
1 40333U 14078B   26161.26641970 -.00000108  00000+0  00000+0 0  9992
2 40333   0.0092   5.4718 0000188 266.0574 343.7738  1.00270829 41973
YAMAL 401               
1 40345U 14082A   26162.35585656  .00000000  00000+0  00000+0 0  9999
2 40345   0.0165 302.1572 0000622 218.8270 316.7771  1.00269130 41861
ASTRA 2G                
1 40364U 14089A   26162.55744608  .00000166  00000+0  00000+0 0  9996
2 40364   0.0541  22.5333 0004739  39.2462  66.9904  1.00272120 41910
FENGYUN 2G              
1 40367U 14090A   26162.64289288 -.00000289  00000+0  00000+0 0  9996
2 40367   5.6236  72.8841 0003726 152.8670   5.3248  1.00275075 41948
MUOS-3                  
1 40374U 15002A   26162.33504872 -.00000114  00000+0  00000+0 0  9990
2 40374   4.5101  43.5014 0051677 178.3289 143.0345  1.00271867 41526
INMARSAT 5-F2           
1 40384U 15005A   26161.32908104 -.00000268  00000+0  00000+0 0  9998
2 40384   0.0182 351.4709 0000482 250.7950  79.8962  1.00271617 40924
ABS-3A                  
1 40424U 15010A   26161.69576145  .00000000  00000+0  00000+0 0  9998
2 40424   0.0322  54.3406 0002114 336.4101 115.7456  1.00272202 41315
EUTELSAT 115 WEST B     
1 40425U 15010B   26161.67367659 -.00000008  00000+0  00000+0 0  9994
2 40425   0.0216 160.6232 0000059 220.5162   5.5168  1.00273831 41328
EXPRESS-AM7             
1 40505U 15012A   26162.55978609  .00000167  00000+0  00000+0 0  9991
2 40505   0.0178 324.7552 0003087 128.2301  48.4735  1.00274095 40952
BEIDOU-3S IGSO-1S       
1 40549U 15019A   26161.85690506 -.00000178  00000+0  00000+0 0  9998
2 40549  49.2085 295.5396 0038713 190.8479 173.2945  1.00251826 41013
THOR 7                  
1 40613U 15022A   26162.33790873  .00000009  00000+0  00000+0 0  9998
2 40613   0.0412 133.7160 0002478 308.0883 298.8727  1.00271384 40750
TURKMENALEM52E/MONACOSAT
1 40617U 15023A   26162.56221277  .00000120  00000+0  00000+0 0  9999
2 40617   0.0184  52.2071 0002774  29.6428  72.4971  1.00273833 40798
DIRECTV 15              
1 40663U 15026A   26162.53155062 -.00000085  00000+0  00000+0 0  9999
2 40663   0.0180   7.0171 0000625 277.8273  63.5158  1.00269312 40405
SKY MEXICO-1            
1 40664U 15026B   26162.53631731 -.00000217  00000+0  00000+0 0  9999
2 40664   0.0185 327.3821 0002092 135.5940 271.1791  1.00270302 40391
METEOSAT-11 (MSG-4)     
1 40732U 15034A   26162.26860381  .00000080  00000+0  00000+0 0  9996
2 40732   3.1872  71.1443 0001733   7.6237 287.0442  1.00278494  7153
STAR ONE C4             
1 40733U 15034B   26162.53805065 -.00000248  00000+0  00000+0 0  9992
2 40733   0.0276  22.4067 0002129  47.1805 314.0060  1.00271663 39950
WGS F7 (USA 263)        
1 40746U 15036A   26161.94766697  .00000035  00000+0  00000+0 0  9992
2 40746   0.0020 354.3250 0000551 323.9565  97.1625  1.00270260 39809
INTELSAT 34 (IS-34)     
1 40874U 15039A   26162.32698867 -.00000268  00000+0  00000+0 0  9992
2 40874   0.0095 328.8375 0000319 355.2995 357.7670  1.00269705 39575
EUTELSAT 8 WEST B       
1 40875U 15039B   26162.33643538 -.00000049  00000+0  00000+0 0  9996
2 40875   0.0640   2.4694 0003893  74.7018 295.6278  1.00271587 39597
GSAT-6                  
1 40880U 15041A   26162.56820836 -.00000144  00000+0  00000+0 0  9994
2 40880   1.9055  82.6638 0003433 352.9765 111.3440  1.00271038 39542
INMARSAT 5-F3           
1 40882U 15042A   26161.66067652  .00000068  00000+0  00000+0 0  9990
2 40882   0.0181 358.7886 0000203 177.1745 140.5378  1.00269180 39508
MUOS-4                  
1 40887U 15044A   26162.19608148 -.00000079  00000+0  00000+0 0  9990
2 40887   4.3181  42.1999 0059233   4.8333 358.1309  1.00271359 39507
TJS-1                   
1 40892U 15046A   26162.63725144 -.00000139  00000+0  00000+0 0  9990
2 40892   0.3083  84.9617 0005568 356.7660 202.7261  1.00271605 39511
EXPRESS-AM8             
1 40895U 15048A   26162.62031108 -.00000095  00000+0  00000+0 0  9995
2 40895   0.0165 309.3994 0000011 316.7094 203.1717  1.00271090 39293
BEIDOU-3S IGSO-2S       
1 40938U 15053A   26161.75511332 -.00000150  00000+0  00000+0 0  9996
2 40938  49.2318 258.8610 0065400 191.8182 175.7790  1.00261032 39292
SKY MUSTER 1 (NBN1A)    
1 40940U 15054A   26161.51026902  .00000000  00000+0  00000+0 0  9991
2 40940   0.0228 338.0809 0001705 111.1974 133.5327  1.00268853 39198
ARSAT 2                 
1 40941U 15054B   26162.53588397 -.00000208  00000+0  00000+0 0  9997
2 40941   0.0200  33.3440 0002071  33.1238 305.3266  1.00272255 39246
MORELOS 3               
1 40946U 15056A   26162.60080727 -.00000029  00000+0  00000+0 0  9997
2 40946   3.1825  14.9314 0001397 359.1399 349.0514  1.00272247 39222
APSTAR-9                
1 40982U 15059A   26162.65131340 -.00000250  00000+0  00000+0 0  9999
2 40982   0.0206  20.1717 0002436 164.4593  91.8218  1.00268583 39068
TURKSAT 4B              
1 40984U 15060A   26162.56177943  .00000132  00000+0  00000+0 0  9990
2 40984   0.0213  57.9497 0002281   8.0868  86.0984  1.00269522 39045
ZHONGXING-2C            
1 41021U 15063A   26162.64367288 -.00000307  00000+0  00000+0 0  9993
2 41021   0.2577  90.2038 0007414  96.9449  48.0028  1.00274012 38921
GSAT-15                 
1 41028U 15065A   26162.49909206 -.00000241  00000+0  00000+0 0  9994
2 41028   0.0848 266.0592 0004072 160.0360 106.9192  1.00270441 38745
BADR-7 (ARABSAT-6B)     
1 41029U 15065B   26162.55701274  .00000161  00000+0  00000+0 0  9997
2 41029   0.0325 232.8987 0003534 326.6890 286.8230  1.00271568 38714
LAOSAT 1                
1 41034U 15067A   26162.64826715 -.00000326  00000+0  00000+0 0  9997
2 41034   0.0416 171.6726 0002324 222.9385 227.2742  1.00272298 38803
TELSTAR 12V             
1 41036U 15068A   26162.33504872 -.00000102  00000+0  00000+0 0  9995
2 41036   0.0129 298.1194 0002099 147.2387 279.9574  1.00271917 38567
ELEKTRO-L 2             
1 41105U 15074A   26161.97872950 -.00000103  00000+0  00000+0 0  9994
2 41105   6.6771  70.6006 0000813 270.8986 255.6834  1.00271247 38447
COSMOS 2513             
1 41121U 15075A   26162.14003939 -.00000121  00000+0  00000+0 0  9996
2 41121   0.0789  98.2469 0003262 331.8821 320.0338  1.00270519 38489
EXPRESS-AMU1            
1 41191U 15082A   26162.55900609  .00000172  00000+0  00000+0 0  9991
2 41191   0.0046  68.0710 0002705  14.2371  54.9231  1.00271202 38215
